{
  "norad_id": 52995,
  "name": "STARLINK-4296",
  "history": [
    {
      "epoch": "2026-03-28T18:29:06.319392Z",
      "apogee_km": 540.8131246340135,
      "perigee_km": 538.706071688146,
      "latitude_deg": 6.234648550702475e-05,
      "longitude_deg": -94.99867594373731,
      "height_km": 540.5807642133962,
      "semi_major_axis_km": 6917.89659816108,
      "eccentricity": 0.00015229,
      "inclination_deg": 53.2208,
      "raan_deg": 8.4635,
      "arg_perigee_deg": 85.9357,
      "mean_anomaly_deg": 274.181,
      "mean_motion_rev_day": 15.08834697
    },
    {
      "epoch": "2026-03-29T00:50:38.477184Z",
      "apogee_km": 540.7173339127785,
      "perigee_km": 538.7706422027386,
      "latitude_deg": -6.346279575147145e-06,
      "longitude_deg": 168.16653002882427,
      "height_km": 540.5819472233197,
      "semi_major_axis_km": 6917.880988057758,
      "eccentricity": 0.0001407,
      "inclination_deg": 53.2187,
      "raan_deg": 7.2739,
      "arg_perigee_deg": 86.5941,
      "mean_anomaly_deg": 273.5212,
      "mean_motion_rev_day": 15.08839804
    },
    {
      "epoch": "2026-03-30T03:52:11.682048Z",
      "apogee_km": 540.7727022229228,
      "perigee_km": 538.6904237854587,
      "latitude_deg": -4.4167045683535445e-05,
      "longitude_deg": 116.61333511181527,
      "height_km": 540.6041398695036,
      "semi_major_axis_km": 6917.868563004191,
      "eccentricity": 0.0001505,
      "inclination_deg": 53.2176,
      "raan_deg": 2.219,
      "arg_perigee_deg": 88.7365,
      "mean_anomaly_deg": 271.3799,
      "mean_motion_rev_day": 15.08843869
    },
    {
      "epoch": "2026-03-30T21:21:26.849376Z",
      "apogee_km": 540.9150350297105,
      "perigee_km": 538.583015650569,
      "latitude_deg": -3.0261087844870715e-05,
      "longitude_deg": -149.69133892009575,
      "height_km": 540.7597187298219,
      "semi_major_axis_km": 6917.88602534014,
      "eccentricity": 0.00016855,
      "inclination_deg": 53.2187,
      "raan_deg": 358.9457,
      "arg_perigee_deg": 95.6746,
      "mean_anomaly_deg": 264.4438,
      "mean_motion_rev_day": 15.08838156
    },
    {
      "epoch": "2026-03-30T22:56:49.998336Z",
      "apogee_km": 540.8900527020851,
      "perigee_km": 538.6121305112811,
      "latitude_deg": 1.49975666036413e-05,
      "longitude_deg": -173.90034846556605,
      "height_km": 540.7654422435369,
      "semi_major_axis_km": 6917.888091606683,
      "eccentricity": 0.00016464,
      "inclination_deg": 53.2189,
      "raan_deg": 358.6484,
      "arg_perigee_deg": 95.9912,
      "mean_anomaly_deg": 264.1268,
      "mean_motion_rev_day": 15.0883748
    },
    {
      "epoch": "2026-04-01T21:03:00.709056Z",
      "apogee_km": 540.654640925909,
      "perigee_km": 538.8200206533838,
      "latitude_deg": -5.914488235093857e-06,
      "longitude_deg": -155.95837139029533,
      "height_km": 540.617808829158,
      "semi_major_axis_km": 6917.874330789647,
      "eccentricity": 0.0001326,
      "inclination_deg": 53.2188,
      "raan_deg": 350.0284,
      "arg_perigee_deg": 89.0364,
      "mean_anomaly_deg": 271.078,
      "mean_motion_rev_day": 15.08841982
    },
    {
      "epoch": "2026-04-02T20:53:47.808672Z",
      "apogee_km": 540.6894570689446,
      "perigee_km": 538.7801244546945,
      "latitude_deg": 9.628353737281783e-06,
      "longitude_deg": -159.09454500397982,
      "height_km": 540.5631872549658,
      "semi_major_axis_km": 6917.871790761819,
      "eccentricity": 0.000138,
      "inclination_deg": 53.2193,
      "raan_deg": 345.5678,
      "arg_perigee_deg": 85.9461,
      "mean_anomaly_deg": 274.1689,
      "mean_motion_rev_day": 15.08842813
    },
    {
      "epoch": "2026-04-02T22:29:10.881600Z",
      "apogee_km": 540.6931144703058,
      "perigee_km": 538.7716070766573,
      "latitude_deg": 4.563786264087155e-06,
      "longitude_deg": 176.69672567319662,
      "height_km": 540.565323207046,
      "semi_major_axis_km": 6917.869360773481,
      "eccentricity": 0.00013888,
      "inclination_deg": 53.2192,
      "raan_deg": 345.2705,
      "arg_perigee_deg": 86.2461,
      "mean_anomaly_deg": 273.869,
      "mean_motion_rev_day": 15.08843608
    }
  ]
}